IRIDIUM 171             
1 43929U 19002H   23358.56595621 -.00000009  00000+0 -10263-4 0  9995
2 43929  86.3974  12.2602 0001993  91.3409 268.8015 14.34218006259158
IRIDIUM 170             
1 43930U 19002J   23359.58297064  .00001698  00000+0  26522-3 0  9997
2 43930  86.6097  11.6817 0002526  88.0661 272.0845 14.72276955266162
IRIDIUM 167             
1 43931U 19002K   23359.53637007  .00000495  00000+0  16978-3 0  9996
2 43931  86.3968  11.6627 0002080  89.8863 270.2571 14.34221115259292
IRIDIUM 181             
1 56726U 23068S   23359.56797221  .00000621  00000+0  17755-3 0  9992
2 56726  86.8626  56.9033 0002054  70.3574 289.7849 14.43587000 31943
IRIDIUM 177             
1 56727U 23068T   23359.61013326  .00002291  00000+0  29788-3 0  9990
2 56727  86.1975  38.2342 0002384  98.0047 262.1445 14.80248973 32557
IRIDIUM 174             
1 56728U 23068U   23359.60472287  .00002289  00000+0  29751-3 0  9992
2 56728  86.1981  38.3263 0002256  97.3191 262.8286 14.80258702 32559
IRIDIUM 178             
1 56729U 23068V   23359.59930856  .00002232  00000+0  29010-3 0  9998
2 56729  86.5781  47.5164 0002466  97.4215 262.7287 14.80267826 32552
IRIDIUM 179             
1 56730U 23068W   23359.59389025  .00002239  00000+0  29098-3 0  9999
2 56730  86.6790  49.4534 0002468  99.5665 260.5836 14.80265133 32556
